[{"OBJECT_NAME":"STARLINK-2400","OBJECT_ID":"2021-018AG","EPOCH":"2026-03-09T17:52:01.803648","MEAN_MOTION":15.30197918,"ECCENTRICITY":0.00013621,"INCLINATION":53.1598,"RA_OF_ASC_NODE":242.8743,"ARG_OF_PERICENTER":66.0772,"MEAN_ANOMALY":294.0371,"EPHEMERIS_TYPE":0,"CLASSIFICATION_TYPE":"U","NORAD_CAT_ID":47817,"ELEMENT_SET_NO":999,"REV_AT_EPOCH":27672,"BSTAR":-2.8309068e-5,"MEAN_MOTION_DOT":-1.197e-5,"MEAN_MOTION_DDOT":0},{"OBJECT_NAME":"HORS 2","OBJECT_ID":"2023-091AG","EPOCH":"2026-03-09T22:11:34.810944","MEAN_MOTION":15.2928008,"ECCENTRICITY":0.00098173,"INCLINATION":97.5195,"RA_OF_ASC_NODE":134.7443,"ARG_OF_PERICENTER":79.3164,"MEAN_ANOMALY":280.9181,"EPHEMERIS_TYPE":0,"CLASSIFICATION_TYPE":"U","NORAD_CAT_ID":57196,"ELEMENT_SET_NO":999,"REV_AT_EPOCH":14934,"BSTAR":0.00059338338,"MEAN_MOTION_DOT":0.00016821,"MEAN_MOTION_DDOT":0}]
